{
  "norad_id": 67517,
  "name": "STARLINK-36544",
  "history": [
    {
      "epoch": "2026-03-28T15:49:31.531872Z",
      "apogee_km": 484.0508277143508,
      "perigee_km": 481.91948872712237,
      "latitude_deg": -1.2151365649607186e-06,
      "longitude_deg": 143.74885293989766,
      "height_km": 482.89175861083294,
      "semi_major_axis_km": 6861.122158220736,
      "eccentricity": 0.00015532,
      "inclination_deg": 43.0035,
      "raan_deg": 207.2069,
      "arg_perigee_deg": 263.0249,
      "mean_anomaly_deg": 97.0426,
      "mean_motion_rev_day": 15.27601353
    },
    {
      "epoch": "2026-03-29T01:14:29.491872Z",
      "apogee_km": 483.74808685072185,
      "perigee_km": 482.5171750789277,
      "latitude_deg": 8.774715196172655e-07,
      "longitude_deg": -0.09515042115442233,
      "height_km": 482.5049215348477,
      "semi_major_axis_km": 6861.2696309648245,
      "eccentricity": 8.97e-05,
      "inclination_deg": 43.0016,
      "raan_deg": 204.9911,
      "arg_perigee_deg": 311.0295,
      "mean_anomaly_deg": 49.0479,
      "mean_motion_rev_day": 15.27552103
    }
  ]
}